CCSDS_OMM_VERS = 2.0
CREATION_DATE  = 
ORIGINATOR     = 

OBJECT_NAME    = ALOS (DAICHI)
OBJECT_ID      = 2006-002A
CENTER_NAME    = EARTH
REF_FRAME      = TEME
TIME_SYSTEM    = UTC
MEAN_ELEMENT_THEORY = SGP/SGP4

EPOCH          = 2026-02-21T18:38:40.985664
MEAN_MOTION    = 14.69751969
ECCENTRICITY   = .00015603
INCLINATION    = 98.1193
RA_OF_ASC_NODE = 8.8157
ARG_OF_PERICENTER = 54.8988
MEAN_ANOMALY   = 305.2364

EPHEMERIS_TYPE = 0
CLASSIFICATION_TYPE = U
NORAD_CAT_ID   = 28931
ELEMENT_SET_NO = 999
REV_AT_EPOCH   = 7114
BSTAR          = .21811205E-3
MEAN_MOTION_DOT = .1251E-4
MEAN_MOTION_DDOT = 0

CCSDS_OMM_VERS = 2.0
CREATION_DATE  = 
ORIGINATOR     = 

OBJECT_NAME    = H-2A R/B
OBJECT_ID      = 2006-002B
CENTER_NAME    = EARTH
REF_FRAME      = TEME
TIME_SYSTEM    = UTC
MEAN_ELEMENT_THEORY = SGP/SGP4

EPOCH          = 2026-02-21T07:24:13.629312
MEAN_MOTION    = 15.16048804
ECCENTRICITY   = .005214
INCLINATION    = 98.2384
RA_OF_ASC_NODE = 197.9321
ARG_OF_PERICENTER = 297.6453
MEAN_ANOMALY   = 61.9491

EPHEMERIS_TYPE = 0
CLASSIFICATION_TYPE = U
NORAD_CAT_ID   = 28932
ELEMENT_SET_NO = 999
REV_AT_EPOCH   = 9195
BSTAR          = .41821E-3
MEAN_MOTION_DOT = .8247E-4
MEAN_MOTION_DDOT = 0

CCSDS_OMM_VERS = 2.0
CREATION_DATE  = 
ORIGINATOR     = 

OBJECT_NAME    = RESURS-DK 1
OBJECT_ID      = 2006-021A
CENTER_NAME    = EARTH
REF_FRAME      = TEME
TIME_SYSTEM    = UTC
MEAN_ELEMENT_THEORY = SGP/SGP4

EPOCH          = 2026-02-21T22:18:39.088512
MEAN_MOTION    = 15.12639073
ECCENTRICITY   = .00030814
INCLINATION    = 69.9316
RA_OF_ASC_NODE = 277.7911
ARG_OF_PERICENTER = 179.9164
MEAN_ANOMALY   = 180.2003

EPHEMERIS_TYPE = 0
CLASSIFICATION_TYPE = U
NORAD_CAT_ID   = 29228
ELEMENT_SET_NO = 999
REV_AT_EPOCH   = 8514
BSTAR          = .10642323E-3
MEAN_MOTION_DOT = .1757E-4
MEAN_MOTION_DDOT = 0

CCSDS_OMM_VERS = 2.0
CREATION_DATE  = 
ORIGINATOR     = 

OBJECT_NAME    = CZ-4B R/B
OBJECT_ID      = 2006-046C
CENTER_NAME    = EARTH
REF_FRAME      = TEME
TIME_SYSTEM    = UTC
MEAN_ELEMENT_THEORY = SGP/SGP4

EPOCH          = 2026-02-21T17:03:09.119808
MEAN_MOTION    = 15.16719251
ECCENTRICITY   = .00323126
INCLINATION    = 97.5624
RA_OF_ASC_NODE = 97.6613
ARG_OF_PERICENTER = 325.2070
MEAN_ANOMALY   = 34.7050

EPHEMERIS_TYPE = 0
CLASSIFICATION_TYPE = U
NORAD_CAT_ID   = 29507
ELEMENT_SET_NO = 999
REV_AT_EPOCH   = 5762
BSTAR          = .20952255E-3
MEAN_MOTION_DOT = .409E-4
MEAN_MOTION_DDOT = 0

CCSDS_OMM_VERS = 2.0
CREATION_DATE  = 
ORIGINATOR     = 

OBJECT_NAME    = CZ-2C R/B
OBJECT_ID      = 2007-010B
CENTER_NAME    = EARTH
REF_FRAME      = TEME
TIME_SYSTEM    = UTC
MEAN_ELEMENT_THEORY = SGP/SGP4

EPOCH          = 2026-02-21T22:40:51.785184
MEAN_MOTION    = 14.20240158
ECCENTRICITY   = .00584754
INCLINATION    = 98.3973
RA_OF_ASC_NODE = 167.0139
ARG_OF_PERICENTER = 341.0352
MEAN_ANOMALY   = 18.8647

EPHEMERIS_TYPE = 0
CLASSIFICATION_TYPE = U
NORAD_CAT_ID   = 31114
ELEMENT_SET_NO = 999
REV_AT_EPOCH   = 97748
BSTAR          = .6770604E-4
MEAN_MOTION_DOT = .106E-5
MEAN_MOTION_DDOT = 0

CCSDS_OMM_VERS = 2.0
CREATION_DATE  = 
ORIGINATOR     = 

OBJECT_NAME    = COSMO-SKYMED 1
OBJECT_ID      = 2007-023A
CENTER_NAME    = EARTH
REF_FRAME      = TEME
TIME_SYSTEM    = UTC
MEAN_ELEMENT_THEORY = SGP/SGP4

EPOCH          = 2026-02-21T22:49:34.765248
MEAN_MOTION    = 14.96404092
ECCENTRICITY   = .00014703
INCLINATION    = 97.8874
RA_OF_ASC_NODE = 243.8583
ARG_OF_PERICENTER = 87.3803
MEAN_ANOMALY   = 272.7587

EPHEMERIS_TYPE = 0
CLASSIFICATION_TYPE = U
NORAD_CAT_ID   = 31598
ELEMENT_SET_NO = 999
REV_AT_EPOCH   = 1255
BSTAR          = .29205841E-3
MEAN_MOTION_DOT = .325E-4
MEAN_MOTION_DDOT = 0

CCSDS_OMM_VERS = 2.0
CREATION_DATE  = 
ORIGINATOR     = 

OBJECT_NAME    = COSMOS 2428
OBJECT_ID      = 2007-029A
CENTER_NAME    = EARTH
REF_FRAME      = TEME
TIME_SYSTEM    = UTC
MEAN_ELEMENT_THEORY = SGP/SGP4

EPOCH          = 2026-02-21T17:56:15.697824
MEAN_MOTION    = 14.12940699
ECCENTRICITY   = .00081651
INCLINATION    = 70.9400
RA_OF_ASC_NODE = 236.8068
ARG_OF_PERICENTER = 294.2754
MEAN_ANOMALY   = 65.7514

EPHEMERIS_TYPE = 0
CLASSIFICATION_TYPE = U
NORAD_CAT_ID   = 31792
ELEMENT_SET_NO = 999
REV_AT_EPOCH   = 96184
BSTAR          = .12273795E-3
MEAN_MOTION_DOT = .181E-5
MEAN_MOTION_DDOT = 0

CCSDS_OMM_VERS = 2.0
CREATION_DATE  = 
ORIGINATOR     = 

OBJECT_NAME    = SL-16 R/B
OBJECT_ID      = 2007-029B
CENTER_NAME    = EARTH
REF_FRAME      = TEME
TIME_SYSTEM    = UTC
MEAN_ELEMENT_THEORY = SGP/SGP4

EPOCH          = 2026-02-21T19:20:01.978080
MEAN_MOTION    = 14.14836578
ECCENTRICITY   = .0002455
INCLINATION    = 70.9751
RA_OF_ASC_NODE = 205.7717
ARG_OF_PERICENTER = 282.3605
MEAN_ANOMALY   = 180.2544

EPHEMERIS_TYPE = 0
CLASSIFICATION_TYPE = U
NORAD_CAT_ID   = 31793
ELEMENT_SET_NO = 999
REV_AT_EPOCH   = 96312
BSTAR          = -.27337503E-4
MEAN_MOTION_DOT = -.101E-5
MEAN_MOTION_DDOT = 0

CCSDS_OMM_VERS = 2.0
CREATION_DATE  = 
ORIGINATOR     = 

OBJECT_NAME    = KORONAS-FOTON
OBJECT_ID      = 2009-003A
CENTER_NAME    = EARTH
REF_FRAME      = TEME
TIME_SYSTEM    = UTC
MEAN_ELEMENT_THEORY = SGP/SGP4

EPOCH          = 2026-02-21T17:55:54.619680
MEAN_MOTION    = 15.42882217
ECCENTRICITY   = .00097753
INCLINATION    = 82.4295
RA_OF_ASC_NODE = 292.4482
ARG_OF_PERICENTER = 206.7334
MEAN_ANOMALY   = 153.3410

EPHEMERIS_TYPE = 0
CLASSIFICATION_TYPE = U
NORAD_CAT_ID   = 33504
ELEMENT_SET_NO = 999
REV_AT_EPOCH   = 94328
BSTAR          = .26466529E-3
MEAN_MOTION_DOT = .11673E-3
MEAN_MOTION_DDOT = 0

CCSDS_OMM_VERS = 2.0
CREATION_DATE  = 
ORIGINATOR     = 

OBJECT_NAME    = CZ-2C R/B
OBJECT_ID      = 2011-030B
CENTER_NAME    = EARTH
REF_FRAME      = TEME
TIME_SYSTEM    = UTC
MEAN_ELEMENT_THEORY = SGP/SGP4

EPOCH          = 2026-02-21T19:17:29.598720
MEAN_MOTION    = 14.81152336
ECCENTRICITY   = .0053813
INCLINATION    = 97.8518
RA_OF_ASC_NODE = 10.3892
ARG_OF_PERICENTER = 43.1762
MEAN_ANOMALY   = 16.3492

EPHEMERIS_TYPE = 0
CLASSIFICATION_TYPE = U
NORAD_CAT_ID   = 37731
ELEMENT_SET_NO = 999
REV_AT_EPOCH   = 78774
BSTAR          = .18744506E-3
MEAN_MOTION_DOT = .1439E-4
MEAN_MOTION_DDOT = 0

CCSDS_OMM_VERS = 2.0
CREATION_DATE  = 
ORIGINATOR     = 

OBJECT_NAME    = H-2A R/B
OBJECT_ID      = 2012-025E
CENTER_NAME    = EARTH
REF_FRAME      = TEME
TIME_SYSTEM    = UTC
MEAN_ELEMENT_THEORY = SGP/SGP4

EPOCH          = 2026-02-21T19:12:15.939936
MEAN_MOTION    = 14.95017515
ECCENTRICITY   = .00450214
INCLINATION    = 98.4714
RA_OF_ASC_NODE = 18.5808
ARG_OF_PERICENTER = 6.9091
MEAN_ANOMALY   = 353.2738

EPHEMERIS_TYPE = 0
CLASSIFICATION_TYPE = U
NORAD_CAT_ID   = 38341
ELEMENT_SET_NO = 999
REV_AT_EPOCH   = 74584
BSTAR          = .28175329E-3
MEAN_MOTION_DOT = .3074E-4
MEAN_MOTION_DDOT = 0

CCSDS_OMM_VERS = 2.0
CREATION_DATE  = 
ORIGINATOR     = 

OBJECT_NAME    = SHIJIAN-16 (SJ-16)
OBJECT_ID      = 2013-057A
CENTER_NAME    = EARTH
REF_FRAME      = TEME
TIME_SYSTEM    = UTC
MEAN_ELEMENT_THEORY = SGP/SGP4

EPOCH          = 2026-02-21T22:35:43.418400
MEAN_MOTION    = 14.92272089
ECCENTRICITY   = .0016202
INCLINATION    = 74.9710
RA_OF_ASC_NODE = 214.8982
ARG_OF_PERICENTER = 152.5861
MEAN_ANOMALY   = 207.6186

EPHEMERIS_TYPE = 0
CLASSIFICATION_TYPE = U
NORAD_CAT_ID   = 39358
ELEMENT_SET_NO = 999
REV_AT_EPOCH   = 66915
BSTAR          = .12271909E-3
MEAN_MOTION_DOT = .1226E-4
MEAN_MOTION_DDOT = 0

