ALOS (DAICHI)           
1 28931U 06002A   26052.77686326  .00001251  00000+0  21811-3 0  9995
2 28931  98.1193   8.8157 0001560  54.8988 305.2364 14.69751969 71142
H-2A R/B                
1 28932U 06002B   26052.30849108  .00008247  00000+0  41821-3 0  9999
2 28932  98.2384 197.9321 0052140 297.6453  61.9491 15.16048804 91951
RESURS-DK 1             
1 29228U 06021A   26052.92961908  .00001757  00000+0  10642-3 0  9996
2 29228  69.9316 277.7911 0003081 179.9164 180.2003 15.12639073 85141
CZ-4B R/B               
1 29507U 06046C   26052.71052222  .00004090  00000+0  20952-3 0  9998
2 29507  97.5624  97.6613 0032312 325.2070  34.7050 15.16719251 57627
CZ-2C R/B               
1 31114U 07010B   26052.94504381  .00000106  00000+0  67706-4 0  9993
2 31114  98.3973 167.0139 0058475 341.0352  18.8647 14.20240158977481
COSMO-SKYMED 1          
1 31598U 07023A   26052.95109682  .00003250  00000+0  29206-3 0  9994
2 31598  97.8874 243.8583 0001470  87.3803 272.7587 14.96404092 12555
COSMOS 2428             
1 31792U 07029A   26052.74740391  .00000181  00000+0  12274-3 0  9998
2 31792  70.9400 236.8068 0008165 294.2754  65.7514 14.12940699961841
SL-16 R/B               
1 31793U 07029B   26052.80557845 -.00000101  00000+0 -27338-4 0  9998
2 31793  70.9751 205.7717 0002455 282.3605 180.2544 14.14836578963127
KORONAS-FOTON           
1 33504U 09003A   26052.74715995  .00011673  00000+0  26467-3 0  9994
2 33504  82.4295 292.4482 0009775 206.7334 153.3410 15.42882217943284
CZ-2C R/B               
1 37731U 11030B   26052.80381480  .00001439  00000+0  18745-3 0  9997
2 37731  97.8518  10.3892 0053813  43.1762  16.3492 14.81152336787749
H-2A R/B                
1 38341U 12025E   26052.80018449  .00003074  00000+0  28175-3 0  9997
2 38341  98.4714  18.5808 0045021   6.9091 353.2738 14.95017515745848
SHIJIAN-16 (SJ-16)      
1 39358U 13057A   26052.94147475  .00001226  00000+0  12272-3 0  9997
2 39358  74.9710 214.8982 0016202 152.5861 207.6186 14.92272089669152
